{
  "norad_id": 57424,
  "name": "2023-104A",
  "history": [
    {
      "epoch": "2026-03-27T14:26:56.438304Z",
      "apogee_km": 472.06408105809805,
      "perigee_km": 460.05115066833514,
      "latitude_deg": 5.7134401027366634e-05,
      "longitude_deg": 114.28984329692614,
      "height_km": 466.18123644681134,
      "semi_major_axis_km": 6844.194615863216,
      "eccentricity": 0.0008776,
      "inclination_deg": 97.276,
      "raan_deg": 156.0595,
      "arg_perigee_deg": 60.3386,
      "mean_anomaly_deg": 299.873,
      "mean_motion_rev_day": 15.33272112
    },
    {
      "epoch": "2026-03-30T20:45:38.821824Z",
      "apogee_km": 471.5030013741907,
      "perigee_km": 459.98748511170925,
      "latitude_deg": -1.3317424408874914e-05,
      "longitude_deg": 19.60940458426951,
      "height_km": 465.0887468749832,
      "semi_major_axis_km": 6843.88224324295,
      "eccentricity": 0.0008413,
      "inclination_deg": 97.2756,
      "raan_deg": 159.2718,
      "arg_perigee_deg": 49.2872,
      "mean_anomaly_deg": 310.91,
      "mean_motion_rev_day": 15.33377087
    },
    {
      "epoch": "2026-03-30T22:19:37.093152Z",
      "apogee_km": 471.506487941283,
      "perigee_km": 459.9819394878841,
      "latitude_deg": 2.824745290055593e-05,
      "longitude_deg": -3.883418810653204,
      "height_km": 465.05737727703956,
      "semi_major_axis_km": 6843.881213714583,
      "eccentricity": 0.00084196,
      "inclination_deg": 97.2755,
      "raan_deg": 159.3361,
      "arg_perigee_deg": 48.9261,
      "mean_anomaly_deg": 311.2708,
      "mean_motion_rev_day": 15.33377433
    }
  ]
}